H1 CPF 01  gfz 2022 08 28 00  7393 terrasarx 
H2 0702601  6201 31698    2022 08 27 12 59 42 2022 09 01 00 00 42   120 1 1  0 0 0
H9
10 0 59822  48942.000000  0   -1744216.718  -1911903.782  -6390597.631
10 0 59822  49062.000000  0   -1437765.317  -1087457.553  -6655004.596
10 0 59822  49182.000000  0   -1091863.975   -249883.196  -6803309.958
10 0 59822  49302.000000  0    -712412.691    585671.300  -6832963.504
10 0 59822  49422.000000  0    -306149.009   1404209.866  -6743455.168
10 0 59822  49542.000000  0     119468.330   2191150.390  -6536322.502
10 0 59822  49662.000000  0     556391.707   2932578.390  -6215128.851
10 0 59822  49782.000000  0     996133.617   3615490.537  -5785409.590
10 0 59822  49902.000000  0    1429927.243   4228021.776  -5254585.131
10 0 59822  50022.000000  0    1848897.198   4759653.849  -4631844.680
10 0 59822  50142.000000  0    2244238.312   5201402.842  -3927998.323
10 0 59822  50262.000000  0    2607398.052   5545979.423  -3155298.114
10 0 59822  50382.000000  0    2930259.355   5787919.363  -2327232.147
10 0 59822  50502.000000  0    3205320.323   5923680.808  -1458292.440
10 0 59822  50622.000000  0    3425865.386   5951704.717   -563720.370
10 0 59822  50742.000000  0    3586122.986   5872435.763    340765.441
10 0 59822  50862.000000  0    3681405.790   5688302.666   1239252.155
10 0 59822  50982.000000  0    3708230.764   5403658.530   2115920.193
10 0 59822  51102.000000  0    3664415.058   5024683.842   2955330.037
10 0 59822  51222.000000  0    3549144.814   4559251.753   3742703.498
10 0 59822  51342.000000  0    3363016.068   4016759.175   4464188.084
10 0 59822  51462.000000  0    3108046.602   3407932.778   5107105.541
10 0 59822  51582.000000  0    2787654.587   2744608.739   5660174.857
10 0 59822  51702.000000  0    2406612.510   2039496.227   6113705.002
10 0 59822  51822.000000  0    1970974.851   1305929.542   6459760.310
10 0 59822  51942.000000  0    1487978.593    557612.010   6692293.205
10 0 59822  52062.000000  0     965920.427   -191640.248   6807242.935
10 0 59822  52182.000000  0     414013.466   -928152.205   6802603.253
10 0 59822  52302.000000  0    -157775.659  -1638639.966   6678455.741
10 0 59822  52422.000000  0    -738906.902  -2310450.108   6436967.969
10 0 59822  52542.000000  0   -1318460.525  -2931785.250   6082356.716
10 0 59822  52662.000000  0   -1885339.546  -3491911.475   5620818.044
10 0 59822  52782.000000  0   -2428481.104  -3981346.547   5060426.885
10 0 59822  52902.000000  0   -2937074.722  -4392026.177   4411003.440
10 0 59822  53022.000000  0   -3400781.244  -4717443.289   3683945.535
10 0 59822  53142.000000  0   -3809945.815  -4952756.911   2892030.304
10 0 59822  53262.000000  0   -4155800.365  -5094868.808   2049189.769
10 0 59822  53382.000000  0   -4430653.052  -5142466.218   1170263.127
10 0 59822  53502.000000  0   -4628058.823  -5096027.989    270729.746
10 0 59822  53622.000000  0   -4742966.545  -4957794.453   -633570.916
10 0 59822  53742.000000  0   -4771839.031  -4731701.595  -1526727.486
10 0 59822  53862.000000  0   -4712741.644  -4423280.191  -2393046.316
10 0 59822  53982.000000  0   -4565397.433  -4039522.704  -3217334.431
10 0 59822  54102.000000  0   -4331208.479  -3588723.187  -3985169.366
10 0 59822  54222.000000  0   -4013243.844  -3080295.001  -4683151.461
10 0 59822  54342.000000  0   -3616194.876  -2524570.245  -5299134.307
10 0 59822  54462.000000  0   -3146299.241  -1932586.378  -5822428.888
10 0 59822  54582.000000  0   -2611236.825  -1315865.180  -6243979.502
10 0 59822  54702.000000  0   -2019999.076   -686188.112  -6556509.902
10 0 59822  54822.000000  0   -1382734.246    -55372.969  -6754636.999
10 0 59822  54942.000000  0    -710573.718    564943.368  -6834952.215
10 0 59822  55062.000000  0     -15441.259   1163513.904  -6796073.957
10 0 59822  55182.000000  0     690153.031   1729680.002  -6638668.472
10 0 59822  55302.000000  0    1393331.945   2253556.547  -6365442.081
10 0 59822  55422.000000  0    2081081.854   2726202.372  -5981099.691
10 0 59822  55542.000000  0    2740489.478   3139772.598  -5492272.088
10 0 59822  55662.000000  0    3358981.404   3487649.478  -4907411.410
10 0 59822  55782.000000  0    3924563.680   3764552.192  -4236657.397
10 0 59822  55902.000000  0    4426057.611   3966622.003  -3491672.087
10 0 59822  56022.000000  0    4853326.185   4091480.244  -2685444.760
10 0 59822  56142.000000  0    5197484.411   4138257.250  -1832069.756
10 0 59822  56262.000000  0    5451089.981   4107591.800   -946501.242
10 0 59822  56382.000000  0    5608308.325   4001599.743    -44288.325
10 0 59822  56502.000000  0    5665047.912   3823813.041    858702.952
10 0 59822  56622.000000  0    5619062.610   3579089.298   1746576.503
10 0 59822  56742.000000  0    5470016.384   3273493.470   2603694.944
10 0 59822  56862.000000  0    5219509.018   2914156.450   3414963.794
10 0 59822  56982.000000  0    4871062.163   2509112.777   4166104.940
10 0 59822  57102.000000  0    4430065.317   2067121.229   4843911.470
10 0 59822  57222.000000  0    3903688.046   1597476.095   5436480.051
10 0 59822  57342.000000  0    3300755.146   1109811.208   5933420.750
10 0 59822  57462.000000  0    2631589.559    613900.470   6326033.514
10 0 59822  57582.000000  0    1907830.019    119462.454   6607452.613
10 0 59822  57702.000000  0    1142226.019   -364028.465   6772761.614
10 0 59822  57822.000000  0     348410.604   -827523.234   6819075.648
10 0 59822  57942.000000  0    -459343.630  -1262566.982   6745587.601
10 0 59822  58062.000000  0   -1266380.774  -1661452.905   6553580.670
10 0 59822  58182.000000  0   -2057926.283  -2017358.761   6246405.885
10 0 59822  58302.000000  0   -2819354.975  -2324462.824   5829427.560
10 0 59822  58422.000000  0   -3536462.336  -2578040.836   5309938.469
10 0 59822  58542.000000  0   -4195734.954  -2774541.291   4697038.042
10 0 59822  58662.000000  0   -4784610.262  -2911635.871   4001476.999
10 0 59822  58782.000000  0   -5291722.063  -2988244.056   3235472.100
10 0 59822  58902.000000  0   -5707127.103  -3004532.230   2412493.979
10 0 59822  59022.000000  0   -6022508.536  -2961887.744   1547029.545
10 0 59822  59142.000000  0   -6231349.362  -2862867.417    654321.472
10 0 59822  59262.000000  0   -6329070.273  -2711119.887   -249907.567
10 0 59822  59382.000000  0   -6313130.375  -2511286.064  -1149740.287
10 0 59822  59502.000000  0   -6183085.619  -2268878.513  -2029355.295
10 0 59822  59622.000000  0   -5940603.424  -1990143.995  -2873312.866
10 0 59822  59742.000000  0   -5589436.058  -1681913.033  -3666830.741
10 0 59822  59862.000000  0   -5135352.862  -1351440.327  -4396044.895
10 0 59822  59982.000000  0   -4586034.293  -1006240.171  -5048249.880
10 0 59822  60102.000000  0   -3950930.335   -653920.400  -5612115.242
10 0 59822  60222.000000  0   -3241087.039   -302019.249  -6077873.362
10 0 59822  60342.000000  0   -2468946.823     42151.391  -6437477.217
10 0 59822  60462.000000  0   -1648126.561    371652.837  -6684727.700
10 0 59822  60582.000000  0    -793176.978    680053.895  -6815369.473
10 0 59822  60702.000000  0      80671.277    961552.370  -6827155.681
10 0 59822  60822.000000  0     957771.758   1211080.635  -6719881.776
10 0 59822  60942.000000  0    1822335.491   1424394.137  -6495391.453
10 0 59822  61062.000000  0    2658709.927   1598143.213  -6157548.638
10 0 59822  61182.000000  0    3451658.071   1729925.299  -5712177.385
10 0 59822  61302.000000  0    4186632.704   1818317.024  -5166970.619
10 0 59822  61422.000000  0    4850044.296   1862886.756  -4531369.572
10 0 59822  61542.000000  0    5429517.664   1864186.654  -3816410.821
10 0 59822  61662.000000  0    5914130.107   1823723.508  -3034543.572
10 0 59822  61782.000000  0    6294627.552   1743909.212  -2199420.363
10 0 59822  61902.000000  0    6563613.664   1627992.014  -1325661.368
10 0 59822  62022.000000  0    6715704.630   1479968.828   -428596.972
10 0 59822  62142.000000  0    6747646.020   1304480.397    476006.463
10 0 59822  62262.000000  0    6658386.054   1106692.919   1372230.382
10 0 59822  62382.000000  0    6449108.153    892168.589   2244291.902
10 0 59822  62502.000000  0    6123216.446    666727.129   3076831.948
10 0 59822  62622.000000  0    5686276.392    436303.356   3855193.016
10 0 59822  62742.000000  0    5145911.514    206804.009   4565683.054
10 0 59822  62862.000000  0    4511661.457    -16031.301   5195817.547
10 0 59822  62982.000000  0    3794803.637   -226764.284   5734539.763
10 0 59822  63102.000000  0    3008141.992   -420381.909   6172410.499
10 0 59822  63222.000000  0    2165771.091   -592407.456   6501767.714
10 0 59822  63342.000000  0    1282819.030   -738998.027   6716855.068
10 0 59822  63462.000000  0     375171.939   -857026.400   6813917.816
10 0 59822  63582.000000  0    -540813.495   -944145.120   6791263.055
10 0 59822  63702.000000  0   -1448603.949   -998832.576   6649286.443
10 0 59822  63822.000000  0   -2331786.428  -1020419.574   6390465.078
10 0 59822  63942.000000  0   -3174363.097  -1009096.025   6019317.075
10 0 59822  64062.000000  0   -3961042.086   -965898.038   5542329.595
10 0 59822  64182.000000  0   -4677519.807   -892676.571   4967852.270
10 0 59822  64302.000000  0   -5310748.108   -792047.046   4305956.501
10 0 59822  64422.000000  0   -5849180.144   -667320.776   3568262.483
10 0 59822  64542.000000  0   -6282989.391   -522419.663   2767737.395
10 0 59822  64662.000000  0   -6604259.218   -361776.003   1918468.615
10 0 59822  64782.000000  0   -6807138.009   -190219.297   1035412.257
10 0 59822  64902.000000  0   -6887952.820    -12853.752    134122.785
10 0 59822  65022.000000  0   -6845279.433    165071.202   -769529.507
10 0 59822  65142.000000  0   -6679966.556    338294.208  -1659647.334
10 0 59822  65262.000000  0   -6395113.888    501674.785  -2520593.314
10 0 59822  65382.000000  0   -5996008.066    650322.850  -3337271.186
99
